IXPE                    
1 49954U 21121A   24174.25001157  .00006375  00000+0  45409-3 0  9992
2 49954   0.2327 356.0093 0009621 353.1096  67.6418 14.98274122138664
